NUSAT-50 (NANCY ROMAN)  
1 60493U 24149AB  26068.80227738  .00012094  00000+0  42252-3 0  9994
2 60493  97.3817 150.7693 0002523 238.0469 122.0527 15.29713355 86930
STARLINK-35872          
1 66580U 25268Z   26068.11628635  .00053330  00000+0  19337-2 0  9990
2 66580  43.0025 350.1632 0002039 253.0464 107.0164 15.27576929 17874
